SL-14 R/B               
1 21423U 91042B   25347.86248597  .00000643  00000+0  78387-4 0  9997
2 21423  82.4927 300.6700 0017552 158.1480 202.0487 14.81740160840365
ERS-1                   
1 21574U 91050A   25347.98818727  .00000477  00000+0  16735-3 0  9997
2 21574  98.7905 359.0742 0033028  96.4803 264.0146 14.39365853803400
ARIANE 40 R/B           
1 21610U 91050F   25347.89607839  .00000478  00000+0  15593-3 0  9990
2 21610  98.2165  38.2848 0002706 357.4329   2.6847 14.42814446806621
INTERCOSMOS 25          
1 21819U 91086A   25347.87378769  .00002093  00000+0  41631-3 0  9992
2 21819  82.6072   1.8907 1486550 301.9518  44.5356 12.11731283486294
SL-8 R/B                
1 21876U 92008B   25347.98675744  .00000157  00000+0  14608-3 0  9998
2 21876  82.9266 331.5187 0035108  16.3641  37.3542 13.75959133697636
SL-8 R/B                
1 21938U 92020B   25348.01555311  .00000130  00000+0  11873-3 0  9995
2 21938  82.9304 217.3703 0028977 174.5471 299.6183 13.75527469689354
USA 81                  
1 21949U 92023A   25347.94220931  .00000259  00000+0  88544-4 0  9990
2 21949  85.0080 180.8827 0001353  66.2554 293.8780 14.32327367 82513
COSMOS 2219             
1 22219U 92076A   25347.99792984  .00000028  00000+0  39243-4 0  9992
2 22219  71.0577 197.2028 0019102 325.1718  34.8153 14.14062643706260
SL-16 R/B               
1 22220U 92076B   25347.79807550 -.00000002  00000+0  22986-4 0  9997
2 22220  71.0005   9.3027 0014730 232.6775 300.0365 14.16840903709662
COSMOS 2221             
1 22236U 92080A   25347.75441758  .00002396  00000+0  21220-3 0  9995
2 22236  82.5046   1.3543 0016074 118.5117 241.7726 14.95765759767940
SL-16 R/B               
1 22285U 92093B   25347.94550328  .00000376  00000+0  21684-3 0  9998
2 22285  71.0201 184.2648 0002195  67.5386 292.5969 14.15430390701029
COSMOS 2228             
1 22286U 92094A   25347.96053179  .00002816  00000+0  24356-3 0  9994
2 22286  82.5178 319.3664 0016612 226.8172 133.1663 14.96738655763237
