CCSDS_OMM_VERS = 2.0
CREATION_DATE  = 
ORIGINATOR     = 

OBJECT_NAME    = SL-14 R/B
OBJECT_ID      = 1991-042B
CENTER_NAME    = EARTH
REF_FRAME      = TEME
TIME_SYSTEM    = UTC
MEAN_ELEMENT_THEORY = SGP/SGP4

EPOCH          = 2025-12-13T20:41:58.787808
MEAN_MOTION    = 14.81740160
ECCENTRICITY   = .0017552
INCLINATION    = 82.4927
RA_OF_ASC_NODE = 300.6700
ARG_OF_PERICENTER = 158.1480
MEAN_ANOMALY   = 202.0487

EPHEMERIS_TYPE = 0
CLASSIFICATION_TYPE = U
NORAD_CAT_ID   = 21423
ELEMENT_SET_NO = 999
REV_AT_EPOCH   = 84036
BSTAR          = .78386567E-4
MEAN_MOTION_DOT = .643E-5
MEAN_MOTION_DDOT = 0

CCSDS_OMM_VERS = 2.0
CREATION_DATE  = 
ORIGINATOR     = 

OBJECT_NAME    = ERS-1
OBJECT_ID      = 1991-050A
CENTER_NAME    = EARTH
REF_FRAME      = TEME
TIME_SYSTEM    = UTC
MEAN_ELEMENT_THEORY = SGP/SGP4

EPOCH          = 2025-12-13T23:42:59.380128
MEAN_MOTION    = 14.39365853
ECCENTRICITY   = .00330281
INCLINATION    = 98.7905
RA_OF_ASC_NODE = 359.0742
ARG_OF_PERICENTER = 96.4803
MEAN_ANOMALY   = 264.0146

EPHEMERIS_TYPE = 0
CLASSIFICATION_TYPE = U
NORAD_CAT_ID   = 21574
ELEMENT_SET_NO = 999
REV_AT_EPOCH   = 80340
BSTAR          = .16734555E-3
MEAN_MOTION_DOT = .477E-5
MEAN_MOTION_DDOT = 0

CCSDS_OMM_VERS = 2.0
CREATION_DATE  = 
ORIGINATOR     = 

OBJECT_NAME    = ARIANE 40 R/B
OBJECT_ID      = 1991-050F
CENTER_NAME    = EARTH
REF_FRAME      = TEME
TIME_SYSTEM    = UTC
MEAN_ELEMENT_THEORY = SGP/SGP4

EPOCH          = 2025-12-13T21:30:21.172896
MEAN_MOTION    = 14.42814446
ECCENTRICITY   = .0002706
INCLINATION    = 98.2165
RA_OF_ASC_NODE = 38.2848
ARG_OF_PERICENTER = 357.4329
MEAN_ANOMALY   = 2.6847

EPHEMERIS_TYPE = 0
CLASSIFICATION_TYPE = U
NORAD_CAT_ID   = 21610
ELEMENT_SET_NO = 999
REV_AT_EPOCH   = 80662
BSTAR          = .1559267E-3
MEAN_MOTION_DOT = .478E-5
MEAN_MOTION_DDOT = 0

CCSDS_OMM_VERS = 2.0
CREATION_DATE  = 
ORIGINATOR     = 

OBJECT_NAME    = INTERCOSMOS 25
OBJECT_ID      = 1991-086A
CENTER_NAME    = EARTH
REF_FRAME      = TEME
TIME_SYSTEM    = UTC
MEAN_ELEMENT_THEORY = SGP/SGP4

EPOCH          = 2025-12-13T20:58:15.256416
MEAN_MOTION    = 12.11731283
ECCENTRICITY   = .14865504
INCLINATION    = 82.6072
RA_OF_ASC_NODE = 1.8907
ARG_OF_PERICENTER = 301.9518
MEAN_ANOMALY   = 44.5356

EPHEMERIS_TYPE = 0
CLASSIFICATION_TYPE = U
NORAD_CAT_ID   = 21819
ELEMENT_SET_NO = 999
REV_AT_EPOCH   = 48629
BSTAR          = .41631314E-3
MEAN_MOTION_DOT = .2093E-4
MEAN_MOTION_DDOT = 0

CCSDS_OMM_VERS = 2.0
CREATION_DATE  = 
ORIGINATOR     = 

OBJECT_NAME    = SL-8 R/B
OBJECT_ID      = 1992-008B
CENTER_NAME    = EARTH
REF_FRAME      = TEME
TIME_SYSTEM    = UTC
MEAN_ELEMENT_THEORY = SGP/SGP4

EPOCH          = 2025-12-13T23:40:55.842816
MEAN_MOTION    = 13.75959133
ECCENTRICITY   = .00351086
INCLINATION    = 82.9266
RA_OF_ASC_NODE = 331.5187
ARG_OF_PERICENTER = 16.3641
MEAN_ANOMALY   = 37.3542

EPHEMERIS_TYPE = 0
CLASSIFICATION_TYPE = U
NORAD_CAT_ID   = 21876
ELEMENT_SET_NO = 999
REV_AT_EPOCH   = 69763
BSTAR          = .14608341E-3
MEAN_MOTION_DOT = .157E-5
MEAN_MOTION_DDOT = 0

CCSDS_OMM_VERS = 2.0
CREATION_DATE  = 
ORIGINATOR     = 

OBJECT_NAME    = SL-8 R/B
OBJECT_ID      = 1992-020B
CENTER_NAME    = EARTH
REF_FRAME      = TEME
TIME_SYSTEM    = UTC
MEAN_ELEMENT_THEORY = SGP/SGP4

EPOCH          = 2025-12-14T00:22:23.788704
MEAN_MOTION    = 13.75527469
ECCENTRICITY   = .00289772
INCLINATION    = 82.9304
RA_OF_ASC_NODE = 217.3703
ARG_OF_PERICENTER = 174.5471
MEAN_ANOMALY   = 299.6183

EPHEMERIS_TYPE = 0
CLASSIFICATION_TYPE = U
NORAD_CAT_ID   = 21938
ELEMENT_SET_NO = 999
REV_AT_EPOCH   = 68935
BSTAR          = .11873276E-3
MEAN_MOTION_DOT = .13E-5
MEAN_MOTION_DDOT = 0

CCSDS_OMM_VERS = 2.0
CREATION_DATE  = 
ORIGINATOR     = 

OBJECT_NAME    = USA 81
OBJECT_ID      = 1992-023A
CENTER_NAME    = EARTH
REF_FRAME      = TEME
TIME_SYSTEM    = UTC
MEAN_ELEMENT_THEORY = SGP/SGP4

EPOCH          = 2025-12-13T22:36:46.884384
MEAN_MOTION    = 14.32327367
ECCENTRICITY   = .00013534
INCLINATION    = 85.0080
RA_OF_ASC_NODE = 180.8827
ARG_OF_PERICENTER = 66.2554
MEAN_ANOMALY   = 293.8780

EPHEMERIS_TYPE = 0
CLASSIFICATION_TYPE = U
NORAD_CAT_ID   = 21949
ELEMENT_SET_NO = 999
REV_AT_EPOCH   = 8251
BSTAR          = .88544075E-4
MEAN_MOTION_DOT = .259E-5
MEAN_MOTION_DDOT = 0

CCSDS_OMM_VERS = 2.0
CREATION_DATE  = 
ORIGINATOR     = 

OBJECT_NAME    = COSMOS 2219
OBJECT_ID      = 1992-076A
CENTER_NAME    = EARTH
REF_FRAME      = TEME
TIME_SYSTEM    = UTC
MEAN_ELEMENT_THEORY = SGP/SGP4

EPOCH          = 2025-12-13T23:57:01.138176
MEAN_MOTION    = 14.14062643
ECCENTRICITY   = .00191023
INCLINATION    = 71.0577
RA_OF_ASC_NODE = 197.2028
ARG_OF_PERICENTER = 325.1718
MEAN_ANOMALY   = 34.8153

EPHEMERIS_TYPE = 0
CLASSIFICATION_TYPE = U
NORAD_CAT_ID   = 22219
ELEMENT_SET_NO = 999
REV_AT_EPOCH   = 70626
BSTAR          = .39243175E-4
MEAN_MOTION_DOT = .28E-6
MEAN_MOTION_DDOT = 0

CCSDS_OMM_VERS = 2.0
CREATION_DATE  = 
ORIGINATOR     = 

OBJECT_NAME    = SL-16 R/B
OBJECT_ID      = 1992-076B
CENTER_NAME    = EARTH
REF_FRAME      = TEME
TIME_SYSTEM    = UTC
MEAN_ELEMENT_THEORY = SGP/SGP4

EPOCH          = 2025-12-13T19:09:13.723200
MEAN_MOTION    = 14.16840903
ECCENTRICITY   = .00147306
INCLINATION    = 71.0005
RA_OF_ASC_NODE = 9.3027
ARG_OF_PERICENTER = 232.6775
MEAN_ANOMALY   = 300.0365

EPHEMERIS_TYPE = 0
CLASSIFICATION_TYPE = U
NORAD_CAT_ID   = 22220
ELEMENT_SET_NO = 999
REV_AT_EPOCH   = 70966
BSTAR          = .22986242E-4
MEAN_MOTION_DOT = -.2E-7
MEAN_MOTION_DDOT = 0

CCSDS_OMM_VERS = 2.0
CREATION_DATE  = 
ORIGINATOR     = 

OBJECT_NAME    = COSMOS 2221
OBJECT_ID      = 1992-080A
CENTER_NAME    = EARTH
REF_FRAME      = TEME
TIME_SYSTEM    = UTC
MEAN_ELEMENT_THEORY = SGP/SGP4

EPOCH          = 2025-12-13T18:06:21.678912
MEAN_MOTION    = 14.95765759
ECCENTRICITY   = .00160746
INCLINATION    = 82.5046
RA_OF_ASC_NODE = 1.3543
ARG_OF_PERICENTER = 118.5117
MEAN_ANOMALY   = 241.7726

EPHEMERIS_TYPE = 0
CLASSIFICATION_TYPE = U
NORAD_CAT_ID   = 22236
ELEMENT_SET_NO = 999
REV_AT_EPOCH   = 76794
BSTAR          = .21219971E-3
MEAN_MOTION_DOT = .2396E-4
MEAN_MOTION_DDOT = 0

CCSDS_OMM_VERS = 2.0
CREATION_DATE  = 
ORIGINATOR     = 

OBJECT_NAME    = SL-16 R/B
OBJECT_ID      = 1992-093B
CENTER_NAME    = EARTH
REF_FRAME      = TEME
TIME_SYSTEM    = UTC
MEAN_ELEMENT_THEORY = SGP/SGP4

EPOCH          = 2025-12-13T22:41:31.483392
MEAN_MOTION    = 14.15430390
ECCENTRICITY   = .0002195
INCLINATION    = 71.0201
RA_OF_ASC_NODE = 184.2648
ARG_OF_PERICENTER = 67.5386
MEAN_ANOMALY   = 292.5969

EPHEMERIS_TYPE = 0
CLASSIFICATION_TYPE = U
NORAD_CAT_ID   = 22285
ELEMENT_SET_NO = 999
REV_AT_EPOCH   = 70102
BSTAR          = .21683858E-3
MEAN_MOTION_DOT = .376E-5
MEAN_MOTION_DDOT = 0

CCSDS_OMM_VERS = 2.0
CREATION_DATE  = 
ORIGINATOR     = 

OBJECT_NAME    = COSMOS 2228
OBJECT_ID      = 1992-094A
CENTER_NAME    = EARTH
REF_FRAME      = TEME
TIME_SYSTEM    = UTC
MEAN_ELEMENT_THEORY = SGP/SGP4

EPOCH          = 2025-12-13T23:03:09.946656
MEAN_MOTION    = 14.96738655
ECCENTRICITY   = .00166125
INCLINATION    = 82.5178
RA_OF_ASC_NODE = 319.3664
ARG_OF_PERICENTER = 226.8172
MEAN_ANOMALY   = 133.1663

EPHEMERIS_TYPE = 0
CLASSIFICATION_TYPE = U
NORAD_CAT_ID   = 22286
ELEMENT_SET_NO = 999
REV_AT_EPOCH   = 76323
BSTAR          = .24355839E-3
MEAN_MOTION_DOT = .2816E-4
MEAN_MOTION_DDOT = 0

